#aV2013  8 19  0  0  0.00000000     288 DD+AD WGS84 FIT  NGA
## 1754  86400.00000000   300.00000000 56523 0.0000000000000
+   31     1  2  3  4  5  6  7  8  9 10 11 12 13 14 15 16 17
+         18 19 20 21 22 23 24 25 26 27 28 29 31 32  0  0  0
+          0  0  0  0  0  0  0  0  0  0  0  0  0  0  0  0  0
+          0  0  0  0  0  0  0  0  0  0  0  0  0  0  0  0  0
+          0  0  0  0  0  0  0  0  0  0  0  0  0  0  0  0  0
++         2  2  2  2  2  2  2  2  2  2  2  2  2  2  2  2  2
++         2  2  2  2  2  2  2  2  2  2  2  2  2  2  2  0  0
++         0  0  0  0  0  0  0  0  0  0  0  0  0  0  0  0  0
++         0  0  0  0  0  0  0  0  0  0  0  0  0  0  0  0  0
++         0  0  0  0  0  0  0  0  0  0  0  0  0  0  0  0  0
%c cc cc ccc ccc cccc cccc cccc cccc ccccc ccccc ccccc ccccc
%c cc cc ccc ccc cccc cccc cccc cccc ccccc ccccc ccccc ccccc
%f  0.0000000  0.000000000  0.00000000000  0.000000000000000
%f  0.0000000  0.000000000  0.00000000000  0.000000000000000
%i    0    0    0    0      0      0      0      0         0
%i    0    0    0    0      0      0      0      0         0
/*      NGA, ST. LOUIS,MO.                                  
/*   EPHEMERIS COMPUTED FROM  1 DAYS OF DATA
/*   EPOCHA SMOOTHER  
/* CCCCCCCCCCCCCCCCCCCCCCCCCCCCCCCCCCCCCCCCCCCCCCCCCCCCCCCCC
*  2013  8 19  3 45  0.00000000                                                 
P  1 -12017.538829  21990.921249  -8667.820173     64.746936                    
V  1  -9415.045865   6289.385114  29186.350027      0.045525                    
P  2  20843.433174  -9970.902085 -12412.036560    447.214997                    
V  2  -8337.564671  14450.034293 -25662.585438      0.017950                    
P  3 -13618.062322   7448.198815  21018.392000    247.981445                    
V  3 -12384.544288 -25165.473974   1068.543618      0.052202                    
P  4  18001.913512   1780.976788 -19819.460815    303.817286                    
V  4 -15601.092593  18984.133783 -12381.365964      0.102716                    
P  5  23834.466497  -3172.839297  11419.139250   -399.564515                    
V  5  13611.620506   5681.535782 -26622.574007     -0.001404                    
P  6 -16407.142798    -51.959168  21008.970253      9.291992                    
V  6  -9053.189166 -24949.319297  -6776.706167      0.196957                    
P  7   1423.210213  17760.757418  19640.869473    248.938441                    
V  7 -18079.567032  17151.944171 -14547.150973      0.042297                    
P  8  10807.246133   9716.952878  22374.094381      8.019407                    
V  8 -21249.955488  18217.672212   1775.305954      0.001817                    
P  9  10980.463194   9415.820380  21744.149674    262.287357                    
V  9 -19468.484187  21284.353660    486.154403      0.026282                    
P 10  24685.074896   9418.330530  -4710.638178    -91.172881                    
V 10  -6081.542264   1546.063260 -30332.439925     -0.014629                    
P 11 -12127.039479  23415.819440   1188.705875   -411.580452                    
V 11  -3877.580668  -4112.979276  30209.306878     -0.034999                    
P 12   9918.331251 -12151.229661 -21446.374695    151.331457                    
V 12  26087.600414   7333.847871   8126.062930      0.021724                    
P 13   4649.082584  26055.630308  -1038.701836     88.635421                    
V 13  -2491.416110   -673.839286 -32246.726516     -0.037514                    
P 14 -14633.163929 -15602.532738 -15634.985245    217.660972                    
V 14  -3028.174914 -19987.000607  22327.426928     -0.006755                    
P 15   5611.189937 -20068.953936  16289.037488   -132.888281                    
V 15   9175.059715  18938.103065  20398.650244     -0.017719                    
P 16 -23989.358460   1368.837331  11652.950874   -248.393884                    
V 16 -13754.146658  -5364.868206 -27283.689749      0.006712                    
P 17  14656.291724  17136.653424 -14000.446079    -12.641641                    
V 17   2846.467492  17929.362385  24305.422104     -0.038925                    
P 18 -13553.863221 -15995.522739  16921.360857    269.506054                    
V 18  20635.699165   2415.284480  18949.158503      0.019876                    
P 19  -9994.238789  15567.207120  18784.541857   -397.623199                    
V 19  -6701.829904 -23336.648837  16100.747672     -0.028538                    
P 20  -3785.483153  15592.003282 -21337.603991    116.618559                    
V 20 -26440.533184  -4559.727560   1443.826289      0.024584                    
P 21  -6047.669743 -16139.957993  20677.049320   -314.297989                    
V 21  17917.649676 -17754.670065  -9385.930629     -0.018889                    
P 22 -22968.976347 -11141.789142   7800.767563    180.667342                    
V 22  10191.541804  -1349.151195  28683.372248      0.018085                    
P 23   -775.803830  23986.787155 -10832.326756     56.218372                    
V 23  -6867.096548 -12592.495625 -27576.907783     -0.034945                    
P 24  14704.896272 -21527.109237  -4960.898029    -12.110998                    
V 24   6328.478668  -2776.242478  30903.955966     -0.006894                    
P 25  -5430.505301 -15668.393156 -20830.262884    137.151795                    
V 25  25810.762162   4834.726283 -10300.531604      0.046070                    
P 26  13673.614854  -5286.567181  21492.456901    148.964600                    
V 26   6395.105180  28093.734642   3070.291442      0.175029                    
P 27 -14588.362789   4312.940682  21762.233032    -25.708939                    
V 27  -8356.770421 -26363.733579   -366.207991     -0.048243                    
P 28  20258.461154  13574.380195  11316.725796    285.349267                    
V 28 -13297.612879  -2190.199199  27717.552460      0.032019                    
P 29  -4280.772969 -25993.320846  -3514.977359    463.371892                    
V 29   3619.131512   3713.473423 -31448.231926      0.031561                    
P 31 -17976.642737   -177.433016 -19479.132114    323.800056                    
V 31  16677.841336 -18586.622349 -14818.632957      0.009470                    
P 32 -14001.104015  10441.835166 -19737.214226   -554.106684                    
V 32 -23880.558378  -9137.459989  12558.336357      0.019574                    
EOF
